2026-05-16 23:07:05 | INFO | strands_evaluation.helper.logger | Logging to: log-kramabench/modes/openai_gpt-5.4-nano/search_i_results_i_plani_k5_skills_off/tasks-mini-kramabench/k-2-d-2-s-2/task_1.log
2026-05-16 23:07:05 | INFO | strands_evaluation.agent_with_mode | Starting task 1: Using TLE data fetched for Starlink satellites 58214, calculate the average rate...
2026-05-16 23:07:06 | INFO | strands_evaluation.agent_with_mode | ============================================================
2026-05-16 23:07:06 | INFO | strands_evaluation.agent_with_mode | NEW TASK: gpt-5.4-nano
2026-05-16 23:07:06 | DEBUG | strands_evaluation.agent_with_mode | QUESTION: Using TLE data fetched for Starlink satellites 58214, calculate the average rate of semi-major axis decay (km/day) for the Gannon storm (May 10-13, 2024) and the preceding quiet period (May 1-4, 2024). Use earth's gravitational paremeter mu = 398600.4418 km^3/s^2, earth radius 6371.0 km, and Kepler's law as a rough estimate of the semi-major axis length. Report in a pair of numbers: (average_quiet_rate_km_day, average_storm_rate_km_day). The tle files are located in input/space-track/, with format <NORAD_ID>_storm.csv and <NORAD_ID>_quiet.csv. Write your answer as [ANSWER].
2026-05-16 23:07:06 | INFO | strands_evaluation.agent_with_mode | ============================================================
2026-05-16 23:07:06 | INFO | strands_evaluation.agent_with_mode | Ablation modes active: search_tool=ideal search_results=ideal agent_management=ideal plan_skills=off
2026-05-16 23:07:06 | DEBUG | strands_evaluation.instrumentation.agent_plugins | Event loop initialized
2026-05-16 23:07:06 | INFO | strands_evaluation.instrumentation.agent_plugins | 
--- Turn 1 (elapsed: 0.0s) ---
2026-05-16 23:07:07 | DEBUG | strands_evaluation.instrumentation.agent_plugins | Model response #1 [stop_reason=tool_use]
2026-05-16 23:07:07 | DEBUG | strands_evaluation.instrumentation.agent_plugins | Model response #1 [role=assistant block=1 tool_use] plan_ideal({"plan_text": "1) Download Starlink 58214 storm & quiet CSVs from input/space-track/. 2) Inspect columns for TLE fields (epoch, mean motion or semi-major axis). 3) Compute semi-major axis a from mean motion using Kepler: n=sqrt(mu/a^3), so a=(mu/n^2)^(1/3). 4) For each period (quiet May1-4 2024, storm May10-13 2024), compute linear slope of a vs time; convert to km/day and average over the interval. 5) Return (quiet_rate, storm_rate) as [quiet, storm]."}) [toolUseId=call_WfxOUZvN7LE6Ynr74WL5Xnvt]
2026-05-16 23:07:07 | INFO | strands_evaluation.instrumentation.agent_plugins | Executing: plan_ideal({"plan_text": "1) Download Starlink 58214 storm & quiet CSVs from input/space-track/. 2) Inspect columns for TLE fields (epoch, mean motion or semi-major axis). 3) Compute semi-major axis a from mean motion using Kepler: n=sqrt(mu/a^3), so a=(mu/n^2)^(1/3). 4) For each period (quiet May1-4 2024, storm May10-13 2024), compute linear slope of a vs time; convert to km/day and average over the interval. 5) Return (quiet_rate, storm_rate) as [quiet, storm]."})
2026-05-16 23:07:07 | DEBUG | strands_evaluation.instrumentation.agent_plugins | Tool result: Ideal execution plan recorded.
2026-05-16 23:07:07 | INFO | strands_evaluation.instrumentation.agent_plugins | 
--- Turn 2 (elapsed: 1.7s) ---
2026-05-16 23:07:08 | DEBUG | strands_evaluation.instrumentation.agent_plugins | Model response #2 [stop_reason=tool_use]
2026-05-16 23:07:08 | DEBUG | strands_evaluation.instrumentation.agent_plugins | Model response #2 [role=assistant block=1 tool_use] search_ideal({"query": "Starlink 58214 storm csv and quiet csv in input/space-track/ with columns epoch mean motion"}) [toolUseId=call_vBqFJg5NI4tZvxNdiOwH6jyM]
2026-05-16 23:07:08 | INFO | strands_evaluation.instrumentation.agent_plugins | Executing: search_ideal({"query": "Starlink 58214 storm csv and quiet csv in input/space-track/ with columns epoch mean motion"})
2026-05-16 23:07:09 | DEBUG | strands_evaluation.instrumentation.agent_plugins | Model response #1 [stop_reason=tool_use]
2026-05-16 23:07:09 | DEBUG | strands_evaluation.instrumentation.agent_plugins | Model response #1 [role=assistant block=1 tool_use] pick({"s3_uris": ["s3://sana-kramabench/datagov/kramabench-astronomy-easy-6/files/space-track/58214_storm.csv", "s3://sana-kramabench/datagov/kramabench-astronomy-easy-6/files/space-track/58214_quiet.csv"], "reason": "Query asks for both Starlink 58214 storm and quiet CSV files from input/space-track/ and mentions columns including epoch and mean motion; select the corresponding storm and quiet datasets."}) [toolUseId=call_c5UNUutYFsjVBlm65YLpp8Vr]
2026-05-16 23:07:09 | INFO | strands_evaluation.instrumentation.agent_plugins | Executing: pick({"s3_uris": ["s3://sana-kramabench/datagov/kramabench-astronomy-easy-6/files/space-track/58214_storm.csv", "s3://sana-kramabench/datagov/kramabench-astronomy-easy-6/files/space-track/58214_quiet.csv"], "reason": "Query asks for both Starlink 58214 storm and quiet CSV files from input/space-track/ and mentions columns including epoch and mean motion; select the corresponding storm and quiet datasets."})
2026-05-16 23:07:09 | DEBUG | strands_evaluation.instrumentation.agent_plugins | Tool result: Recorded 2 pick(s).
2026-05-16 23:07:10 | DEBUG | strands_evaluation.instrumentation.agent_plugins | Model response #2 [stop_reason=end_turn]
2026-05-16 23:07:10 | DEBUG | strands_evaluation.instrumentation.agent_plugins | Model response #2 [role=assistant block=1 text] ["s3://sana-kramabench/datagov/kramabench-astronomy-easy-6/files/space-track/58214_storm.csv","s3://sana-kramabench/datagov/kramabench-astronomy-easy-6/files/space-track/58214_quiet.csv"]
2026-05-16 23:07:10 | INFO | strands_evaluation.instrumentation.ideal_subagent_costs | search_ideal judge subagent cost model=openai/gpt-5.4-nano input=1052 cached_input=0 output=198 cost_usd=0.00045790 success=True
2026-05-16 23:07:10 | INFO | strands_evaluation.tools.external.ideal.search_ideal | search_ideal judge picked 2 uri(s) reason='Query asks for both Starlink 58214 storm and quiet CSV files from input/space-track/ and mentions columns including epoch and mean motion; select the corresponding storm and quiet datasets.'
2026-05-16 23:07:11 | DEBUG | strands_evaluation.instrumentation.agent_plugins | Tool result: {"results": [{"dataset_id": "kramabench-astronomy-easy-6", "s3_uri": "s3://sana-kramabench/datagov/kramabench-astronomy-easy-6/files/space-track/58214_storm.csv", "type": "csv"}, {"dataset_id": "kramabench-astronomy-easy-6", "s3_uri": "s3://sana-kramabench/datagov/kramabench-astronomy-easy-6/files/space-track/58214_quiet.csv", "type": "csv"}], "count": 2, "query": "Starlink 58214 storm csv and quiet csv in input/space-track/ with columns epoch mean motion", "plan_exhausted": false}
2026-05-16 23:07:11 | INFO | strands_evaluation.instrumentation.agent_plugins | 
--- Turn 3 (elapsed: 5.2s) ---
2026-05-16 23:07:12 | DEBUG | strands_evaluation.instrumentation.agent_plugins | Model response #3 [stop_reason=tool_use]
2026-05-16 23:07:12 | DEBUG | strands_evaluation.instrumentation.agent_plugins | Model response #3 [role=assistant block=1 tool_use] peek_file({"s3_uri": "s3://sana-kramabench/datagov/kramabench-astronomy-easy-6/files/space-track/58214_storm.csv", "max_rows": 5}) [toolUseId=call_J86WEXM7nDQDQVD0ZTHTfNvB]
2026-05-16 23:07:12 | DEBUG | strands_evaluation.instrumentation.agent_plugins | Model response #3 [role=assistant block=2 tool_use] peek_file({"s3_uri": "s3://sana-kramabench/datagov/kramabench-astronomy-easy-6/files/space-track/58214_quiet.csv", "max_rows": 5}) [toolUseId=call_HVO8BuvlsxFbIIaYGFEPjk1t]
2026-05-16 23:07:12 | INFO | strands_evaluation.instrumentation.agent_plugins | Executing: peek_file({"s3_uri": "s3://sana-kramabench/datagov/kramabench-astronomy-easy-6/files/space-track/58214_storm.csv", "max_rows": 5})
2026-05-16 23:07:13 | DEBUG | strands_evaluation.instrumentation.agent_plugins | Tool result: {"dataset_id": "kramabench-astronomy-easy-6", "file_path": "files/space-track/58214_storm.csv", "s3_uri": "s3://sana-kramabench/datagov/kramabench-astronomy-easy-6/files/space-track/58214_storm.csv", "size_bytes": 8029, "family": "csv", "preview_text": "CCSDS_OMM_VERS,COMMENT,CREATION_DATE,ORIGINATOR,OBJECT_NAME,OBJECT_ID,CENTER_NAME,REF_FRAME,TIME_SYSTEM,MEAN_ELEMENT_THEORY,EPOCH,MEAN_MOTION,ECCENTRICITY,INCLINATION,RA_OF_ASC_NODE,ARG_OF_PERICENTER,MEAN_ANOMALY,EPHEMERIS_TYPE,CLASSIFICATION_TYPE,NORAD_CAT_ID,ELEMENT_SET_NO,REV_AT_EPOCH,BSTAR,MEAN_MOTION_DOT,MEAN_MOTION_DDOT,SEMIMAJOR_AXIS,PERIOD,APOAPSIS,PERIAPSIS,OBJECT_TYPE,RCS_SIZE,COUNTRY_CODE,LAUNCH_DATE,SITE,DECAY_DATE,FILE,GP_ID,TLE_LINE0,TLE_LINE1,TLE_LINE2\n\"2.0\",\"GENERATED VIA SPACE-TRACK.ORG API\",\"2024-05-10T17:44:02\",\"18 SPCS\",\"STARLINK-30805\",\"2023-170J\",\"EARTH\",\"TEME\",\"UTC\",\"SGP4\",\"2024-05-10T13:03:59.806080\",\"15.02537535\",\"0.00028990\",\"43.0080\",\"226.3847\",\"278.1214\",\"81.9299\",\"0\",\"U\",\"58214\",\"999\",\"2977\",\"-0.00026920000000\",\"-0.00003839\",\"0.0000000000000\",\"6937.212\",\"95.838\",\"561.088\",\"557.066\",\"PAYLOAD\",\"LARGE\",\"US\",\"2023-11-03\",\"AFETR\",\"\",\"4312738\",\"256888979\",\"0 STARLINK-30805\",\"1 58214U 23170J   24131.54444220 -.00003839  00000-0 -26920-3 0  9996\",\"2 58214  43.0080 226.3847 0002899 278.1214  81.9299 15.02537535 29771\"\n\"2.0\",\"GENERATED VIA SPACE-TRACK.ORG API\",\"2024-05-11T02:49:57\",\"18 SPCS\",\"STARLINK-30805\",\"2023-170J\",\"EARTH\",\"TEME\",\"UTC\",\"SGP4\",\"2024-05-10T16:15:27.229536\",\"15.02540313\",\"0.00014720\",\"43.0037\",\"225.6614\",\"276.8779\",\"83.1896\",\"0\",\"U\",\"58214\",\"999\",\"2979\",\"-0.00009585500000\",\"-0.00001498\",\"0.0000000000000\",\"6937.203\",\"95.838\",\"560.089\",\"558.047\",\"PAYLOAD\",\"LARGE\",\"US\",\"2023-11-03\",\"AFETR\",\"\",\"4313042\",\"256923769\",\"0 STARLINK-30805\",\"1 58214U 23170J   24131.67739849 -.00001498  00000-0 -95855-4 0  9997\",\"2 58214  43.0037 225...
